NORAD_CAT_ID,OBJECT_NAME,OBJECT_TYPE,EPOCH,MEAN_MOTION,ECCENTRICITY,INCLINATION,RA_OF_ASC_NODE,ARG_OF_PERICENTER,MEAN_ANOMALY,BSTAR,MEAN_MOTION_DOT,MEAN_MOTION_DDOT,TLE_LINE0,TLE_LINE1,TLE_LINE2,SEMIMAJOR_AXIS,PERIOD,APOGEE,PERIGEE,DECAYED
51963.0,STARLINK-3675,PAYLOAD,2022-12-27 20:36:55,15.08849858,0.0002838,53.2147,231.7265,33.5222,326.5949,0.00029612,4.429e-05,0.0,0 STARLINK-3675,1 51963U 22025H   22361.85897264  .00004429  00000-0  29612-3 0  9990,2 51963  53.2147 231.7265 0002838  33.5222 326.5949 15.08849858 45982,6917.85,95.437,541.679,537.752,0.0
51963.0,STARLINK-3675,PAYLOAD,2022-12-28 01:23:04,15.08845384,0.0002939,53.2148,230.8353,32.8821,327.2354,0.000148,2.068e-05,0.0,0 STARLINK-3675,1 51963U 22025H   22362.05769373  .00002068  00000-0  14800-3 0  9992,2 51963  53.2148 230.8353 0002939  32.8821 327.2354 15.08845384 44921,6917.864000000001,95.437,541.762,537.696,0.0
51963.0,STARLINK-3675,PAYLOAD,2022-12-29 01:13:51,15.08839607,0.0002975,53.2147,226.3745,34.0482,326.07,6.6058e-05,7.63e-06,0.0,0 STARLINK-3675,1 51963U 22025H   22363.05129537  .00000763  00000-0  66058-4 0  9998,2 51963  53.2147 226.3745 0002975  34.0482 326.0700 15.08839607 46163,6917.882,95.438,541.805,537.689,0.0
51963.0,STARLINK-3675,PAYLOAD,2022-12-29 07:35:24,15.088386600000002,0.0003063999999999,53.2148,225.1851,34.1951,325.9238,-8.629299999999999e-06,-4.26e-06,0.0,0 STARLINK-3675,1 51963U 22025H   22363.31625620 -.00000426  00000-0 -86293-5 0  9993,2 51963  53.2148 225.1851 0003064  34.1951 325.9238 15.08838660 45117,6917.884,95.438,541.869,537.63,0.0
51963.0,STARLINK-3675,PAYLOAD,2022-12-29 15:32:20,15.08830582,0.0002955,53.2148,223.6979,37.1356,322.9840000000001,-0.00011086,-2.052e-05,0.0,0 STARLINK-3675,1 51963U 22025H   22363.64746092 -.00002052  00000-0 -11086-3 0  9999,2 51963  53.2148 223.6979 0002955  37.1356 322.9840 15.08830582 46258,6917.909000000002,95.438,541.818,537.73,0.0
51963.0,STARLINK-3675,PAYLOAD,2022-12-30 07:26:12,15.08832559,0.0002956,53.2157,220.7243,37.9477,322.1723,4.8588e-05,4.85e-06,0.0,0 STARLINK-3675,1 51963U 22025H   22364.30986576  .00000485  00000-0  48588-4 0  9990,2 51963  53.2157 220.7243 0002956  37.9477 322.1723 15.08832559 45261,6917.903,95.438,541.813,537.7230000000002,0.0
51963.0,STARLINK-3675,PAYLOAD,2022-12-31 00:55:26,15.08846374,0.0002842999999999,53.2148,217.4521,36.5989,323.5197,0.00029212,4.365e-05,0.0,0 STARLINK-3675,1 51963U 22025H   22365.03849878  .00004365  00000-0  29212-3 0  9997,2 51963  53.2148 217.4521 0002843  36.5989 323.5197 15.08846374 46464,6917.861,95.437,541.693,537.759,0.0
51963.0,STARLINK-3675,PAYLOAD,2022-12-31 07:16:58,15.08852251,0.0002913,53.2151,216.2628,36.7939,323.3252,0.00031144,4.673e-05,0.0,0 STARLINK-3675,1 51963U 22025H   22365.30345522  .00004673  00000-0  31144-3 0  9993,2 51963  53.2151 216.2628 0002913  36.7939 323.3252 15.08852251 45413,6917.843000000003,95.437,541.7230000000002,537.693,0.0
51963.0,STARLINK-3675,PAYLOAD,2023-01-01 00:46:13,15.08848417,0.000296,53.2155,212.9918,37.3322,322.7875,0.00020926,3.044e-05,0.0,0 STARLINK-3675,1 51963U 22025H   23001.03209588  .00003044  00000-0  20926-3 0  9999,2 51963  53.2155 212.9918 0002960  37.3322 322.7875 15.08848417 46613,6917.855,95.437,541.7669999999998,537.672,0.0
51963.0,STARLINK-3675,PAYLOAD,2023-01-01 07:07:45,15.08839428,0.0002988,53.2151,211.8023,36.8811,323.2386,-6.6164e-05,-1.342e-05,0.0,0 STARLINK-3675,1 51963U 22025H   23001.29705801 -.00001342  00000-0 -66164-4 0  9992,2 51963  53.2151 211.8023 0002988  36.8811 323.2386 15.08839428 46650,6917.882,95.438,541.814,537.68,0.0
51963.0,STARLINK-3675,PAYLOAD,2023-01-01 13:29:18,15.08837899,0.0003021,53.215,210.6127,37.6323,322.488,-4.3361e-05,-9.79e-06,0.0,0 STARLINK-3675,1 51963U 22025H   23001.56201979 -.00000979  00000-0 -43361-4 0  9998,2 51963  53.2150 210.6127 0003021  37.6323 322.4880 15.08837899 45601,6917.887,95.438,541.842,537.6619999999998,0.0
51963.0,STARLINK-3675,PAYLOAD,2023-01-01 19:50:51,15.08838451,0.0003067,53.2152,209.4235,38.5237,321.5973,-2.9217e-05,-7.54e-06,0.0,0 STARLINK-3675,1 51963U 22025H   23001.82697992 -.00000754  00000-0 -29217-4 0  9996,2 51963  53.2152 209.4235 0003067  38.5237 321.5973 15.08838451 45645,6917.885,95.438,541.872,537.628,0.0
51963.0,STARLINK-3675,PAYLOAD,2023-01-02 13:20:05,15.08846526,0.0002968,53.216,206.1525,37.2535,322.8663,9.9804e-06,-1.3e-06,0.0,0 STARLINK-3675,1 51963U 22025H   23002.55561845 -.00000130  00000-0  99804-5 0  9991,2 51963  53.2160 206.1525 0002968  37.2535 322.8663 15.08846526 45750,6917.86,95.437,541.779,537.672,0.0
51963.0,STARLINK-3675,PAYLOAD,2023-01-02 19:41:37,15.08845895,0.0002958,53.2158,204.9626,37.9762,322.1438,4.74e-05,4.66e-06,0.0,0 STARLINK-3675,1 51963U 22025H   23002.82057706  .00000466  00000-0  47400-4 0  9992,2 51963  53.2158 204.9626 0002958  37.9762 322.1438 15.08845895 46889,6917.861999999999,95.437,541.774,537.681,0.0
51963.0,STARLINK-3675,PAYLOAD,2023-01-03 13:10:52,15.08839503,0.0003,53.2158,201.6916,39.3135,320.8075,0.00012662,1.727e-05,0.0,0 STARLINK-3675,1 51963U 22025H   23003.54921953  .00001727  00000-0  12662-3 0  9998,2 51963  53.2158 201.6916 0003000  39.3135 320.8075 15.08839503 46997,6917.882,95.438,541.822,537.672,0.0
51963.0,STARLINK-3675,PAYLOAD,2023-01-03 19:32:25,15.08831638,0.0003041999999999,53.2159,200.5025,40.2113,319.9103,5.1999e-05,5.39e-06,0.0,0 STARLINK-3675,1 51963U 22025H   23003.81418832  .00000539  00000-0  51999-4 0  9992,2 51963  53.2159 200.5025 0003042  40.2113 319.9103 15.08831638 47038,6917.906,95.438,541.875,537.6669999999998,0.0
51963.0,STARLINK-3675,PAYLOAD,2023-01-03 22:43:12,15.08831896,0.0003046,53.2159,199.9077,40.5969,319.525,3.6252e-05,2.88e-06,0.0,0 STARLINK-3675,1 51963U 22025H   23003.94666857  .00000288  00000-0  36252-4 0  9994,2 51963  53.2159 199.9077 0003046  40.5969 319.5250 15.08831896 45967,6917.905,95.438,541.877,537.663,0.0
51963.0,STARLINK-3675,PAYLOAD,2023-01-04 19:23:12,15.08842471,0.0003094,53.2159,196.0418,43.3456,316.7779,5.056100000000001e-05,5.16e-06,0.0,0 STARLINK-3675,1 51963U 22025H   23004.80778331  .00000516  00000-0  50561-4 0  9994,2 51963  53.2159 196.0418 0003094  43.3456 316.7779 15.08842471 47181,6917.873000000001,95.437,541.878,537.597,0.0
51963.0,STARLINK-3675,PAYLOAD,2023-01-05 12:52:26,15.08842652,0.0003017,53.2156,192.7704,41.3277,318.7943,0.00017757,2.539e-05,0.0,0 STARLINK-3675,1 51963U 22025H   23005.53641847  .00002539  00000-0  17757-3 0  9992,2 51963  53.2156 192.7704 0003017  41.3277 318.7943 15.08842652 46201,6917.871999999999,95.437,541.8240000000002,537.65,0.0
51963.0,STARLINK-3675,PAYLOAD,2023-01-06 04:46:17,15.08846454,0.0002845,53.2151,189.7947,28.9073,331.2076,0.0001354,1.867e-05,0.0,0 STARLINK-3675,1 51963U 22025H   23006.19881775  .00001867  00000-0  13540-3 0  9990,2 51963  53.2151 189.7947 0002845  28.9073 331.2076 15.08846454 47396,6917.861,95.437,541.694,537.758,0.0
51963.0,STARLINK-3675,PAYLOAD,2023-01-06 22:15:32,15.08848576,0.0003072,53.2143,186.5258,42.5221,317.6008,7.7505e-05,9.45e-06,0.0,0 STARLINK-3675,1 51963U 22025H   23006.92745576  .00000945  00000-0  77505-4 0  9997,2 51963  53.2143 186.5258 0003072  42.5221 317.6008 15.08848576 46419,6917.854,95.437,541.844,537.594,0.0
51963.0,STARLINK-3675,PAYLOAD,2023-01-07 04:37:04,15.08849147,0.0003128,53.2143,185.3363,42.9706,317.153,9.0276e-05,1.149e-05,0.0,0 STARLINK-3675,1 51963U 22025H   23007.19241488  .00001149  00000-0  90276-4 0  9997,2 51963  53.2143 185.3363 0003128  42.9706 317.1530 15.08849147 46451,6917.852,95.437,541.881,537.554,0.0
51963.0,STARLINK-3675,PAYLOAD,2023-01-07 10:58:36,15.08851067,0.0003092,53.2142,184.1469,46.2596,313.8651,-8.0828e-07,-3.02e-06,0.0,0 STARLINK-3675,1 51963U 22025H   23007.45737265 -.00000302  00000-0 -80828-6 0  9995,2 51963  53.2142 184.1469 0003092  46.2596 313.8651 15.08851067 47584,6917.847,95.437,541.851,537.573,0.0
51963.0,STARLINK-3675,PAYLOAD,2023-01-07 12:34:00,15.08840383,0.0003109,53.2149,183.8496,44.6677,315.4566,-9.1038e-05,-1.737e-05,0.0,0 STARLINK-3675,1 51963U 22025H   23007.52361843 -.00001737  00000-0 -91038-4 0  9994,2 51963  53.2149 183.8496 0003109  44.6677 315.4566 15.08840383 47591,6917.879,95.438,541.895,537.5930000000002,0.0
51963.0,STARLINK-3675,PAYLOAD,2023-01-08 04:27:51,15.08841166,0.0003138,53.2152,180.876,45.5557,314.5691,8.0981e-05,1e-05,0.0,0 STARLINK-3675,1 51963U 22025H   23008.18601784  .00001000  00000-0  80981-4 0  9994,2 51963  53.2152 180.8760 0003138  45.5557 314.5691 15.08841166 46605,6917.877,95.437,541.913,537.571,0.0
51963.0,STARLINK-3675,PAYLOAD,2023-01-08 20:21:42,15.08845926,0.000309,53.2149,177.9015,43.8573,316.2664,8.756399999999999e-05,1.105e-05,0.0,0 STARLINK-3675,1 51963U 22025H   23008.84841428  .00001105  00000-0  87564-4 0  9998,2 51963  53.2149 177.9015 0003090  43.8573 316.2664 15.08845926 47795,6917.861999999999,95.437,541.865,537.59,0.0
51963.0,STARLINK-3675,PAYLOAD,2023-01-09 13:50:57,15.0884821,0.0003081,53.2149,174.6306,44.1879,315.9359,0.00025217,3.728e-05,0.0,0 STARLINK-3675,1 51963U 22025H   23009.57705342  .00003728  00000-0  25217-3 0  9992,2 51963  53.2149 174.6306 0003081  44.1879 315.9359 15.08848210 46813,6917.855,95.437,541.852,537.589,0.0
51963.0,STARLINK-3675,PAYLOAD,2023-01-09 17:01:43,15.08846671,0.0003106,53.2151,174.0359,44.1685,315.9555,0.00021974,3.211e-05,0.0,0 STARLINK-3675,1 51963U 22025H   23009.70953419  .00003211  00000-0  21974-3 0  9990,2 51963  53.2151 174.0359 0003106  44.1685 315.9555 15.08846671 46830,6917.86,95.437,541.874,537.576,0.0
51963.0,STARLINK-3675,PAYLOAD,2023-01-10 04:09:25,15.08846287,0.0002788,53.2178,171.9543,39.8967,320.2229,0.00013623,1.881e-05,0.0,0 STARLINK-3675,1 51963U 22025H   23010.17321281  .00001881  00000-0  13623-3 0  9992,2 51963  53.2178 171.9543 0002788  39.8967 320.2229 15.08846287 47997,6917.861,95.437,541.655,537.797,0.0
